#dP2024  4 10  6  0  0.00000000      96 __u+U IGS20 EXT  IAC
## 2309 280800.00000000   900.00000000 60410 0.2500000000000
+  119   C06C07C08C09C10C11C12C13C14C16C19C20C21C22C23C24C25
+        C26C27C28C29C30C32C33C34C35C36C37C38C39C40C41C42C43
+        C44C45C46E02E03E04E05E07E08E09E10E11E12E13E14E15E19
+        E21E24E25E26E27E30E31E33E34E36G01G02G03G04G05G06G07
+        G08G09G10G11G12G13G14G15G16G17G18G19G20G21G22G23G24
+        G25G26G27G28G29G30G31G32J02J03J04R01R02R03R04R05R07
+        R08R09R11R12R13R14R15R16R17R18R19R20R21R22R24R25R26
++        10  9  9  9  8  9 10  9  9 10  7  7  8  8  9  8 10
++        10  8  8  9  9  9  8  8  8  9  9 10 11  9  9  9 10
++         9  9  7  7  9  7  8  9  8  7  9  8 10  7  9  9  7
++         8  7  7  8  8  8  7  8  8  8  8  7  8  7  7  9  8
++         9  7  7  8  8  7  8  8  8  7  8  8  7  7  8  7  8
++         8  7  8  7  7  8  7  7  8  9  9 10  9  8  8  7  8
++         7  7  9  8  9  8 10  8  9  8  8  8  9  9  8  7  9
%c M  cc GPS ccc cccc cccc cccc cccc ccccc ccccc ccccc ccccc
%c cc cc ccc ccc cccc cccc cccc cccc ccccc ccccc ccccc ccccc
%f  0.0000000  0.000000000  0.00000000000  0.000000000000000
%f  0.0000000  0.000000000  0.00000000000  0.000000000000000
%i    0    0    0    0      0      0      0      0         0
%i    0    0    0    0      0      0      0      0         0
/* IAC                                ULTRA-RAPID PREDICTION
/* S/V CLOCKS ARE ALIGNED TO GNSS TIME                      
/* G:C1WC2W R:C1PC2P E:C1XC5X C:C2IC6I J:C1CC2S             
/* PCV:IGS20_2290 OL/AL:FES2004  NONE     YN ORB:CoN CLK:CoN
*  2024 04 10 20 30  0.00000000
PC06  -3060.321355  25149.118901  33808.990751    336.632998
PC07 -18012.587239  35564.972987 -13980.684087   -832.599565
PC08  -3538.897759  38071.052995 -17549.531781    -13.644322
PC09   3130.522988  27280.793134  32621.965372   -744.256149
PC10 -10887.567585  35703.037968 -19799.612927      6.714122
PC11 -24204.495331  -9038.237920  10616.155373    505.491987
PC12  -6802.231983 -15381.953286  22300.424102   -229.337055
PC13   1722.334341  40703.176081 -10137.111820    430.348102
PC14 -13632.292386  -7739.035764 -23071.108772    613.292234
PC16  -9153.347605  22431.105629  34803.612497   -450.411502
PC19  18214.698884  -2156.512054  21050.077772   -914.966810
PC20   8003.421855  15135.200118  22060.023825   -346.983631
PC21   8093.714472 -24850.759961  -9714.552965   -962.631658
PC22  18592.449481 -19253.668114   7837.023832    -43.336662
PC23 -13227.285971   9810.796169  22530.283314   -775.602504
PC24 -14241.572324 -23914.452165   2150.931185    942.169889
PC25 -19580.878779  -9214.602441  17617.294224    371.584911
PC26  -1610.276939 -24014.267317 -14169.482519   -275.413967
PC27  -3467.286059  15797.869155 -22762.383999    297.184748
PC28 -20520.119597  10143.813004 -15959.115902    227.153612
PC29  27707.346604   2146.710351  -2575.825444    266.454080
PC30  16432.010039  13133.656853 -18359.785456    -53.611304
PC32  -7944.841597  24962.449337   9670.396236   -599.466322
PC33 -18203.432934   2236.778905 -21032.841801   -969.766459
PC34 -17878.321737 -12519.935517  17359.290659    409.424491
PC35  20354.349504 -10835.502644  15729.031174    390.073679
PC36  19366.698399   9877.029129 -17473.637033     47.285999
PC37    813.648879  23886.384980  14395.145855   -956.336459
PC38  -8247.224012  34207.683217 -23091.652699    148.207011
PC39 -14383.785220  20182.990727  34159.808499     -7.938253
PC40 -25434.206135  30997.475928 -13510.390833    -64.881612
PC41 -18743.487521  18820.995866  -8535.224888   -922.484133
PC42  -6793.828636 -16451.414502 -21435.671899   -443.535070
PC43 -27538.272479  -2788.450671   3439.007398     67.494655
PC44   3107.401477 -16032.602858  22612.419917    439.884215
PC45  13134.207701  -9743.600256 -22617.778969    -79.663002
PC46  14590.240200  23578.948365  -2972.935343   -138.935424
PE02  -8348.839626 -23493.661997  15954.685228    118.414480
PE03 -12254.960737 -12742.678536 -23738.368759   -106.325977
PE04  26531.991776  -1754.728078  13014.337854   -370.528752
PE05   8945.997655 -19517.396852 -20363.834194   4737.353088
PE07 -25237.119630  14746.928835   4724.888881   -113.844119
PE08 -26222.597340   1248.185370 -13681.884378   -252.963450
PE09  25290.082962 -14651.890172  -4614.271867   -402.503918
PE10  22897.537999   1927.033931  18654.699381   -616.145475
PE11  16139.014136  -7162.704553  23750.099974   3058.231184
PE12  25566.743214   9773.748325  11298.316960   -988.377047
PE13 -16562.376584   6628.034323 -23615.455695    -20.955691
PE14  -8681.308521  22468.395346 -20698.290747      2.906711
PE15 -25588.021432 -10182.014187 -10828.502353    -96.343539
PE19   9985.155394  13879.403228  24176.443244   -267.383580
PE21  -4048.299205  29302.668563   1063.178333   -588.578033
PE24  14883.084160 -17864.412947 -18349.872758   -700.346487
PE25   4323.635119 -29248.060479  -1468.557746      3.183197
PE26   2505.728485  19628.846579 -22013.143227    422.088924
PE27 -14662.983387  18206.101337  18149.477273   -321.123727
PE30 -16507.275149  -3739.462626  24268.628584   -185.502560
PE31  16503.398016   3478.965187 -24324.642026    -20.502261
PE33  19121.331812  20897.254533  -8599.124904     10.239313
PE34 -19515.633956 -20727.654586   8097.374469   -104.947011
PE36  -1952.983366 -19258.670059  22388.427298   -211.568028
PG01  23179.791260   9973.106682   8474.365283    179.141861
PG02  22493.641071  14248.017022  -1630.408367   -455.570282
PG03  12309.579750  12236.153767  19994.950287    303.396809
PG04  19430.501395   4871.991314  17525.573246    335.781204
PG05  -6502.583231 -23465.753516 -10668.805638   -168.662802
PG06   6990.207295 -12906.097231  22193.920671    327.968001
PG07  21771.743791   2180.725101 -14871.165027   -104.403394
PG08  11614.040699  11058.722935 -21333.721520    113.902277
PG09  24661.784718  -6640.435146   7313.532800    155.770388
PG10 -10598.346252  20019.319886 -13394.319727     -7.438039
PG11  -5539.097801 -19355.124782  17372.967342   -632.777642
PG12 -11295.301698 -14213.031822  19121.119581   -495.394092
PG13  -1682.430684 -15175.457120 -21918.172746    641.652484
PG14  13275.846018 -16512.883708 -15865.103388    373.045090
PG15 -12840.675107 -10356.314476 -21335.951178    147.042804
PG16    845.814786  25368.737549  -7315.628005   -319.929620
PG17  22310.462363 -13417.049204   6083.402248    711.256979
PG18 -20905.061306  -1328.853152 -16428.749511   -592.161794
PG19  16083.319457 -15628.174428  13746.711790    466.384189
PG20  -1326.190190 -26564.676938   1646.425369    380.658192
PG21  20145.796249  16683.308234  -6573.096079    127.753187
PG22  10207.508534 -22889.550072  -8799.068372      2.456626
PG23 -14370.056644   8296.364703 -20669.757919    197.849370
PG24 -21163.335228 -15841.320576  -4713.046694   -457.806848
PG25 -15050.502933  -3148.910883  21329.250945    493.462110
PG26  -4482.823980  25263.379054   5923.719359    168.392854
PG27  -1120.747149  16651.444175 -20851.209405    -17.828201
PG28  -9412.631038  11975.472463  21742.995791   -198.208014
PG29 -24782.236703   2710.762061   9262.451913   -602.287057
PG30  14784.450034  -8068.908647 -20450.002579   -407.131791
PG31    474.051198  17517.876318  19628.264116   -228.028537
PG32 -19660.610882  15836.135489   8123.992023   -617.924539
PJ02 -30250.357748  26374.599414  17898.728070     -3.908490
PJ03 -27642.485513  16039.764743 -22882.327595     -0.077487
PJ04 -24526.221070  33907.175779   -712.148769     50.485566
PR01 -18730.261837  13657.533235 -10658.180833     82.117024
PR02 -14468.620446  19865.073176   6767.082506    -22.697473
PR03  -1338.458671  15450.804172  20287.298930     98.003543
PR04  11839.627877   2641.925820  22475.656967    231.454001
PR05  18990.413591 -11475.820353  12618.408338    129.762864
PR07    740.246126 -14990.815886 -20591.439596     79.939783
PR08 -12067.119015  -2390.115173 -22274.756388    -75.042652
PR09   1849.666737 -19468.044132 -16313.208302    180.285025
PR11 -12636.708666 -16697.191982  14562.281317     28.361480
PR12 -10674.446384   2819.166187  23016.967751     38.842211
PR13  -3333.769244  17684.394469  18060.986869    -46.184442
PR14   7568.084050  24364.081051    614.178027     26.360259
PR15  12776.182536  15533.053160 -15677.917616     80.610443
PR16  10603.637766  -2514.218215 -23057.007820     24.705012
PR17  10572.026407  11859.225959 -19940.202805     76.848824
PR18  22893.443194   8913.786441  -6957.504974    136.514566
PR19  24017.809118   3003.515001   8050.667348   -272.600641
PR20   9611.686610  -7647.196415  22368.319220   -111.061530
PR21 -10552.011111 -11883.574519  19954.930012    -91.708051
PR22 -23031.976380  -9251.665369   5869.167707    115.594772
PR24  -8773.644549   8719.387554 -22296.685104    -51.321625
PR25 -10269.577041 -12547.152745  19700.199238    -28.346118
PR26 -11370.181912  -3282.666985 -22573.596493    -25.614549
EOF
